BURSTCUBE               
1 59562U 98067WM  24196.23254908  .00106287  00000+0  10148-2 0  9991
2 59562  51.6332 176.2594 0008550  58.5743 301.6087 15.65876400 13554
SNOOPI                  
1 59563U 98067WN  24196.16586169  .00089482  00000+0  93927-3 0  9995
2 59563  51.6344 177.3206 0007562  58.9019 301.2717 15.63573126 13522
SHENZHOU-18 (SZ-18)     
1 59591U 24078A   24195.29915631  .00037373  00000+0  38582-3 0  9998
2 59591  41.4687 283.6882 0003653  28.8859 331.2182 15.64029648 11709
1998-067WP              
1 59596U 98067WP  24196.19497089  .00167285  00000+0  13240-2 0  9993
2 59596  51.6302 175.2451 0009116  44.2465 315.9259 15.70236116 13594
1998-067WQ              
1 59597U 98067WQ  24196.18951518  .00164222  00000+0  12888-2 0  9990
2 59597  51.6339 175.2257 0009280  44.1571 316.0166 15.70447857 13560
SZ-17 MODULE            
1 59624U 23164C   24195.93335827  .00041883  00000+0  37552-3 0  9991
2 59624  41.4761 278.8889 0005693  76.4394 283.7081 15.67497278 11734
PROGRESS-MS 27          
1 59913U 24103A   24195.83233328  .00016391  00000+0  29599-3 0  9996
2 59913  51.6373 183.3375 0010304  62.7860 297.4178 15.49819002  6813
STARLINER CFT-1         
1 59968U 24109A   24195.83233328  .00016391  00000+0  29599-3 0  9992
2 59968  51.6373 183.3375 0010304  62.7860 297.4178 15.49819002  5250
